[{"OBJECT_NAME":"TRANSPORTER-10 OBJECT AG","OBJECT_ID":"2024-043AG","EPOCH":"2026-03-09T22:12:45.387648","MEAN_MOTION":15.30759727,"ECCENTRICITY":0.00093005,"INCLINATION":97.5471,"RA_OF_ASC_NODE":205.7101,"ARG_OF_PERICENTER":226.5958,"MEAN_ANOMALY":133.4509,"EPHEMERIS_TYPE":0,"CLASSIFICATION_TYPE":"U","NORAD_CAT_ID":59128,"ELEMENT_SET_NO":999,"REV_AT_EPOCH":11192,"BSTAR":0.00032170115,"MEAN_MOTION_DOT":9.498e-5,"MEAN_MOTION_DDOT":0},{"OBJECT_NAME":"STARLINK-34129","OBJECT_ID":"2025-111R","EPOCH":"2026-03-09T10:42:17.556192","MEAN_MOTION":15.27593456,"ECCENTRICITY":0.00014672,"INCLINATION":43.0005,"RA_OF_ASC_NODE":79.4557,"ARG_OF_PERICENTER":268.7528,"MEAN_ANOMALY":91.3156,"EPHEMERIS_TYPE":0,"CLASSIFICATION_TYPE":"U","NORAD_CAT_ID":64138,"ELEMENT_SET_NO":999,"REV_AT_EPOCH":4547,"BSTAR":0.00098116297,"MEAN_MOTION_DOT":0.00026847,"MEAN_MOTION_DDOT":0}]
